[{"OBJECT_NAME":"STARLINK-5788","OBJECT_ID":"2023-090AZ","EPOCH":"2026-03-09T22:00:01.999584","MEAN_MOTION":15.05239756,"ECCENTRICITY":6.894e-5,"INCLINATION":43.0008,"RA_OF_ASC_NODE":260.1536,"ARG_OF_PERICENTER":270.9238,"MEAN_ANOMALY":328.0895,"EPHEMERIS_TYPE":0,"CLASSIFICATION_TYPE":"U","NORAD_CAT_ID":57148,"ELEMENT_SET_NO":999,"REV_AT_EPOCH":577,"BSTAR":0.0053099636,"MEAN_MOTION_DOT":0.00077748,"MEAN_MOTION_DDOT":0},{"OBJECT_NAME":"DELTA 1 DEB","OBJECT_ID":"1977-065M","EPOCH":"2026-03-09T01:35:26.833920","MEAN_MOTION":14.02258817,"ECCENTRICITY":0.04653663,"INCLINATION":29.2135,"RA_OF_ASC_NODE":334.0643,"ARG_OF_PERICENTER":210.7683,"MEAN_ANOMALY":146.4816,"EPHEMERIS_TYPE":0,"CLASSIFICATION_TYPE":"U","NORAD_CAT_ID":10183,"ELEMENT_SET_NO":999,"REV_AT_EPOCH":39655,"BSTAR":0.00095577742,"MEAN_MOTION_DOT":4.037e-5,"MEAN_MOTION_DDOT":0}]
